<?xml version="1.0" encoding="UTF-8"?>
<kml xmlns="http://www.opengis.net/kml/2.2">
  <Document>
    <name>Pealkirjata kaart</name>
    <description/>
    <Style id="icon-1526-9C27B0-nodesc-normal">
      <IconStyle>
        <color>ffb0279c</color>
        <scale>1</scale>
        <Icon>
          <href>https://www.gstatic.com/mapspro/images/stock/503-wht-blank_maps.png</href>
        </Icon>
      </IconStyle>
      <LabelStyle>
        <scale>0</scale>
      </LabelStyle>
      <BalloonStyle>
        <text><![CDATA[<h3>$[name]</h3>]]></text>
      </BalloonStyle>
    </Style>
    <Style id="icon-1526-9C27B0-nodesc-highlight">
      <IconStyle>
        <color>ffb0279c</color>
        <scale>1</scale>
        <Icon>
          <href>https://www.gstatic.com/mapspro/images/stock/503-wht-blank_maps.png</href>
        </Icon>
      </IconStyle>
      <LabelStyle>
        <scale>1</scale>
      </LabelStyle>
      <BalloonStyle>
        <text><![CDATA[<h3>$[name]</h3>]]></text>
      </BalloonStyle>
    </Style>
    <StyleMap id="icon-1526-9C27B0-nodesc">
      <Pair>
        <key>normal</key>
        <styleUrl>#icon-1526-9C27B0-nodesc-normal</styleUrl>
      </Pair>
      <Pair>
        <key>highlight</key>
        <styleUrl>#icon-1526-9C27B0-nodesc-highlight</styleUrl>
      </Pair>
    </StyleMap>
    <Style id="icon-1899-DB4436-nodesc-normal">
      <IconStyle>
        <color>ff3644db</color>
        <scale>1</scale>
        <Icon>
          <href>https://www.gstatic.com/mapspro/images/stock/503-wht-blank_maps.png</href>
        </Icon>
        <hotSpot x="32" xunits="pixels" y="64" yunits="insetPixels"/>
      </IconStyle>
      <LabelStyle>
        <scale>0</scale>
      </LabelStyle>
      <BalloonStyle>
        <text><![CDATA[<h3>$[name]</h3>]]></text>
      </BalloonStyle>
    </Style>
    <Style id="icon-1899-DB4436-nodesc-highlight">
      <IconStyle>
        <color>ff3644db</color>
        <scale>1</scale>
        <Icon>
          <href>https://www.gstatic.com/mapspro/images/stock/503-wht-blank_maps.png</href>
        </Icon>
        <hotSpot x="32" xunits="pixels" y="64" yunits="insetPixels"/>
      </IconStyle>
      <LabelStyle>
        <scale>1</scale>
      </LabelStyle>
      <BalloonStyle>
        <text><![CDATA[<h3>$[name]</h3>]]></text>
      </BalloonStyle>
    </Style>
    <StyleMap id="icon-1899-DB4436-nodesc">
      <Pair>
        <key>normal</key>
        <styleUrl>#icon-1899-DB4436-nodesc-normal</styleUrl>
      </Pair>
      <Pair>
        <key>highlight</key>
        <styleUrl>#icon-1899-DB4436-nodesc-highlight</styleUrl>
      </Pair>
    </StyleMap>
    <Style id="line-1267FF-5000-nodesc-normal">
      <LineStyle>
        <color>ffff6712</color>
        <width>5</width>
      </LineStyle>
      <BalloonStyle>
        <text><![CDATA[<h3>$[name]</h3>]]></text>
      </BalloonStyle>
    </Style>
    <Style id="line-1267FF-5000-nodesc-highlight">
      <LineStyle>
        <color>ffff6712</color>
        <width>7.5</width>
      </LineStyle>
      <BalloonStyle>
        <text><![CDATA[<h3>$[name]</h3>]]></text>
      </BalloonStyle>
    </Style>
    <StyleMap id="line-1267FF-5000-nodesc">
      <Pair>
        <key>normal</key>
        <styleUrl>#line-1267FF-5000-nodesc-normal</styleUrl>
      </Pair>
      <Pair>
        <key>highlight</key>
        <styleUrl>#line-1267FF-5000-nodesc-highlight</styleUrl>
      </Pair>
    </StyleMap>
    <Style id="poly-FFEA00-1200-77-nodesc-normal">
      <LineStyle>
        <color>ff00eaff</color>
        <width>1.2</width>
      </LineStyle>
      <PolyStyle>
        <color>4d00eaff</color>
        <fill>1</fill>
        <outline>1</outline>
      </PolyStyle>
      <BalloonStyle>
        <text><![CDATA[<h3>$[name]</h3>]]></text>
      </BalloonStyle>
    </Style>
    <Style id="poly-FFEA00-1200-77-nodesc-highlight">
      <LineStyle>
        <color>ff00eaff</color>
        <width>1.8</width>
      </LineStyle>
      <PolyStyle>
        <color>4d00eaff</color>
        <fill>1</fill>
        <outline>1</outline>
      </PolyStyle>
      <BalloonStyle>
        <text><![CDATA[<h3>$[name]</h3>]]></text>
      </BalloonStyle>
    </Style>
    <StyleMap id="poly-FFEA00-1200-77-nodesc">
      <Pair>
        <key>normal</key>
        <styleUrl>#poly-FFEA00-1200-77-nodesc-normal</styleUrl>
      </Pair>
      <Pair>
        <key>highlight</key>
        <styleUrl>#poly-FFEA00-1200-77-nodesc-highlight</styleUrl>
      </Pair>
    </StyleMap>
    <Folder>
      <name>Kohad</name>
      <Placemark>
        <name>kodu</name>
        <styleUrl>#poly-FFEA00-1200-77-nodesc</styleUrl>
        <Polygon>
          <outerBoundaryIs>
            <LinearRing>
              <tessellate>1</tessellate>
              <coordinates>
                24.7655334,59.4311905,0
                24.7644015,59.4299437,0
                24.7647287,59.4298264,0
                24.765823,59.431155,0
                24.7655334,59.4311905,0
              </coordinates>
            </LinearRing>
          </outerBoundaryIs>
        </Polygon>
      </Placemark>
      <Placemark>
        <name>techno</name>
        <styleUrl>#icon-1526-9C27B0-nodesc</styleUrl>
        <Point>
          <coordinates>
            24.7052595,59.4116098,0
          </coordinates>
        </Point>
      </Placemark>
    </Folder>
    <Folder>
      <name>Directions from techno to kodu</name>
      <Placemark>
        <name>Directions from techno to kodu</name>
        <styleUrl>#line-1267FF-5000-nodesc</styleUrl>
        <LineString>
          <tessellate>1</tessellate>
          <coordinates>
            24.70537,59.41178,0
            24.70609,59.4126,0
            24.70658,59.41311,0
            24.7068,59.41307,0
            24.70694,59.41305,0
            24.70711,59.41301,0
            24.7073,59.41298,0
            24.70751,59.41294,0
            24.70775,59.41288,0
            24.70809,59.41335,0
            24.70899,59.41464,0
            24.7092,59.41489,0
            24.70935,59.41511,0
            24.71026,59.41638,0
            24.71052,59.41679,0
            24.71094,59.41739,0
            24.71137,59.41786,0
            24.7119,59.41848,0
            24.71193,59.41851,0
            24.71214,59.41875,0
            24.71259,59.41926,0
            24.71268,59.41936,0
            24.71273,59.41943,0
            24.71279,59.4195,0
            24.71301,59.41974,0
            24.71307,59.41981,0
            24.71316,59.41991,0
            24.71365,59.42048,0
            24.71378,59.42063,0
            24.71393,59.4208,0
            24.71394,59.42081,0
            24.71401,59.42089,0
            24.71414,59.42104,0
            24.71438,59.42132,0
            24.71448,59.42144,0
            24.71486,59.42186,0
            24.71527,59.42233,0
            24.71567,59.42279,0
            24.71576,59.42289,0
            24.71761,59.42502,0
            24.71788,59.42532,0
            24.71798,59.42545,0
            24.71821,59.42571,0
            24.71836,59.42587,0
            24.71856,59.42609,0
            24.71871,59.42625,0
            24.71877,59.42631,0
            24.71894,59.4265,0
            24.71903,59.42658,0
            24.71907,59.42662,0
            24.7191,59.42664,0
            24.71915,59.42668,0
            24.7192,59.42671,0
            24.7193,59.42678,0
            24.71932,59.42679,0
            24.71942,59.42685,0
            24.71961,59.42686,0
            24.71976,59.42693,0
            24.72021,59.4271,0
            24.72031,59.42714,0
            24.72051,59.42722,0
            24.72078,59.42733,0
            24.72079,59.42734,0
            24.72081,59.42734,0
            24.72082,59.42735,0
            24.72083,59.42735,0
            24.72085,59.42736,0
            24.72202,59.42758,0
            24.7232,59.42781,0
            24.7235,59.42788,0
            24.72476,59.42814,0
            24.72498,59.42818,0
            24.72532,59.42823,0
            24.72542,59.42824,0
            24.72548,59.42824,0
            24.72561,59.42823,0
            24.72633,59.42819,0
            24.72651,59.42819,0
            24.72664,59.4282,0
            24.72726,59.42823,0
            24.72745,59.42825,0
            24.72764,59.42829,0
            24.72816,59.42839,0
            24.72851,59.42845,0
            24.729,59.42853,0
            24.72943,59.42859,0
            24.72965,59.42862,0
            24.72991,59.42857,0
            24.73015,59.42853,0
            24.73049,59.42849,0
            24.7309,59.42842,0
            24.73166,59.42831,0
            24.73191,59.42828,0
            24.73213,59.42823,0
            24.73257,59.42817,0
            24.73275,59.42816,0
            24.73294,59.42813,0
            24.73312,59.4281,0
            24.73318,59.42809,0
            24.73322,59.42808,0
            24.73328,59.42807,0
            24.73335,59.42807,0
            24.73471,59.42787,0
            24.73563,59.42774,0
            24.73596,59.4277,0
            24.73603,59.42769,0
            24.73634,59.42764,0
            24.7378,59.42741,0
            24.73867,59.42732,0
            24.73975,59.42726,0
            24.74031,59.42724,0
            24.74051,59.4272,0
            24.7407,59.4272,0
            24.7411,59.4272,0
            24.74124,59.4272,0
            24.74213,59.42719,0
            24.74241,59.4272,0
            24.74268,59.42719,0
            24.74298,59.42719,0
            24.74302,59.42718,0
            24.74326,59.4272,0
            24.74418,59.42733,0
            24.74467,59.42741,0
            24.74505,59.42746,0
            24.74547,59.42753,0
            24.7457,59.42757,0
            24.74618,59.42763,0
            24.74716,59.4278,0
            24.74786,59.42792,0
            24.74794,59.42793,0
            24.74827,59.42797,0
            24.74855,59.42801,0
            24.74913,59.4281,0
            24.7494,59.42814,0
            24.75049,59.42833,0
            24.75176,59.42853,0
            24.75309,59.42874,0
            24.75398,59.4289,0
            24.754,59.4289,0
            24.75412,59.42892,0
            24.75457,59.429,0
            24.75505,59.42908,0
            24.75531,59.42912,0
            24.75538,59.42913,0
            24.75553,59.42916,0
            24.75564,59.42918,0
            24.75575,59.42915,0
            24.75576,59.42915,0
            24.75588,59.42917,0
            24.75598,59.42919,0
            24.75609,59.4292,0
            24.75619,59.42922,0
            24.75632,59.42924,0
            24.75643,59.42926,0
            24.75648,59.42927,0
            24.75653,59.42927,0
            24.75657,59.42928,0
            24.75662,59.42929,0
            24.75665,59.42929,0
            24.75667,59.42929,0
            24.75671,59.42929,0
            24.75674,59.4293,0
            24.75677,59.4293,0
            24.7568,59.42929,0
            24.75686,59.42929,0
            24.75749,59.4292,0
            24.75774,59.42915,0
            24.75804,59.42911,0
            24.75812,59.4291,0
            24.75822,59.42909,0
            24.75826,59.42908,0
            24.75839,59.42909,0
            24.75847,59.42907,0
            24.75879,59.42902,0
            24.75911,59.42897,0
            24.75952,59.4289,0
            24.75964,59.42888,0
            24.75974,59.42886,0
            24.75983,59.42883,0
            24.75998,59.42879,0
            24.76015,59.42873,0
            24.7603,59.42868,0
            24.76069,59.42852,0
            24.76124,59.42829,0
            24.7618,59.42811,0
            24.76205,59.42804,0
            24.76215,59.42803,0
            24.76223,59.42802,0
            24.76236,59.428,0
            24.76306,59.42799,0
            24.76321,59.42798,0
            24.76385,59.42797,0
            24.76383,59.4281,0
            24.7638,59.42825,0
            24.76376,59.42854,0
            24.76375,59.42865,0
            24.76374,59.4288,0
            24.76373,59.42893,0
            24.76373,59.42898,0
            24.76374,59.42904,0
            24.76381,59.42927,0
            24.76385,59.42939,0
            24.7639,59.42951,0
            24.76396,59.42962,0
            24.76402,59.42971,0
            24.76421,59.42992,0
            24.76454,59.43026,0
            24.76511,59.43089,0
          </coordinates>
        </LineString>
      </Placemark>
      <Placemark>
        <name>techno</name>
        <styleUrl>#icon-1899-DB4436-nodesc</styleUrl>
        <Point>
          <coordinates>
            24.7053735,59.4117824,0
          </coordinates>
        </Point>
      </Placemark>
      <Placemark>
        <name>kodu</name>
        <styleUrl>#icon-1899-DB4436-nodesc</styleUrl>
        <Point>
          <coordinates>
            24.7651091,59.4308943,0
          </coordinates>
        </Point>
      </Placemark>
    </Folder>
  </Document>
</kml>
